{
    "links": {
        "self": "http://www.neowsapp.com/rest/v1/neo/3837742?api_key=iIulBulltgU6a56xZRHN4H3l9WmuAYTsLGpBGhQ2"
    },
    "id": "3837742",
    "neo_reference_id": "3837742",
    "name": "(2019 AP7)",
    "designation": "2019 AP7",
    "nasa_jpl_url": "http://ssd.jpl.nasa.gov/sbdb.cgi?sstr=3837742",
    "absolute_magnitude_h": 24.6,
    "estimated_diameter": {
        "kilometers": {
            "estimated_diameter_min": 0.0319561887,
            "estimated_diameter_max": 0.0714562102
        },
        "meters": {
            "estimated_diameter_min": 31.9561886721,
            "estimated_diameter_max": 71.4562101727
        },
        "miles": {
            "estimated_diameter_min": 0.0198566489,
            "estimated_diameter_max": 0.0444008168
        },
        "feet": {
            "estimated_diameter_min": 104.8431420431,
            "estimated_diameter_max": 234.436392583
        }
    },
    "is_potentially_hazardous_asteroid": false,
    "close_approach_data": [
        {
            "close_approach_date": "2018-12-27",
            "close_approach_date_full": "2018-Dec-27 22:53",
            "epoch_date_close_approach": 1545951180000,
            "relative_velocity": {
                "kilometers_per_second": "4.4275111048",
                "kilometers_per_hour": "15939.0399771974",
                "miles_per_hour": "9903.8995902758"
            },
            "miss_distance": {
                "astronomical": "0.1700237423",
                "lunar": "66.1392357547",
                "kilometers": "25435189.697508901",
                "miles": "15804694.0046327938"
            },
            "orbiting_body": "Earth"
        }
    ],
    "orbital_data": {
        "orbit_id": "1",
        "orbit_determination_date": "2019-01-10 07:42:06",
        "first_observation_date": "2019-01-08",
        "last_observation_date": "2019-01-10",
        "data_arc_in_days": 2,
        "observations_used": 9,
        "orbit_uncertainty": "9",
        "minimum_orbit_intersection": ".10705",
        "jupiter_tisserand_invariant": "5.343",
        "epoch_osculation": "2458491.5",
        "eccentricity": ".1163379227735144",
        "semi_major_axis": "1.181016335882937",
        "inclination": "7.816004650570893",
        "ascending_node_longitude": "275.024330137112",
        "orbital_period": "468.7942585603092",
        "perihelion_distance": "1.043619348604729",
        "perihelion_argument": "110.8122438705767",
        "aphelion_distance": "1.318413323161145",
        "perihelion_time": "2458399.531331254232",
        "mean_anomaly": "70.62526928157148",
        "mean_motion": ".7679274936207158",
        "equinox": "J2000",
        "orbit_class": {
            "orbit_class_type": "AMO",
            "orbit_class_description": "Near-Earth asteroid orbits similar to that of 1221 Amor",
            "orbit_class_range": "1.017 AU < q (perihelion) < 1.3 AU"
        }
    },
    "is_sentry_object": false
}